CUBEBUG-2 (LO-74)       
1 39440U 13066AA  26156.40724247  .00005426  00000+0  50135-3 0  9999
2 39440  97.8908 105.3367 0059444  67.2888 293.4600 14.93663570675234
FUNCUBE-1 (AO-73)       
1 39444U 13066AE  26156.72056139  .00007673  00000+0  47823-3 0  9992
2 39444  97.8279 127.9286 0034657 241.2535 118.5210 15.09347901677939
UWE-3                   
1 39446U 13066AG  26156.38457537  .00004324  00000+0  37270-3 0  9998
2 39446  97.8699 112.3806 0049229   1.0820 359.0498 14.96928204675814
UNISAT-6                
1 40012U 14033C   26156.70319073  .00004032  00000+0  43462-3 0  9998
2 40012  97.7873 309.6189 0046454 106.0536 254.5803 14.88181134644459
DUCHIFAT-1              
1 40021U 14033M   26156.43696292  .00091631  00000+0  10321-2 0  9997
2 40021  98.0469 213.9697 0004709 135.9979 224.1653 15.62240333653911
QB50P1                  
1 40025U 14033R   26156.28625995  .00008026  00000+0  39735-3 0  9993
2 40025  98.0971 166.5996 0007025 264.5036  95.5395 15.18070423651222
LILACSAT-2              
1 40908U 15049K   26156.40311003  .00016866  00000+0  29144-3 0  9991
2 40908  97.4655 192.7995 0005343 302.5632  57.5104 15.51038852593925
FOX-1A (AO-85)          
1 40967U 15058D   26155.94350760  .00003528  00000+0  31879-3 0  9996
2 40967  64.7764 317.0315 0129804  61.3870 300.0228 14.90905473111742
CAS-2T & KS-1Q          
1 41847U 16066G   26156.46601537  .00001782  00000+0  25737-3 0  9999
2 41847  98.3816 232.3358 0342355 164.9515 196.2178 14.44654069503106
RADFXSAT (FOX-1B)       
1 43017U 17073E   26156.36694125  .00009261  00000+0  40440-3 0  9991
2 43017  97.4713  23.8246 0151376  10.1794 350.2442 15.12507922463601
DIWATA-2B               
1 43678U 18084H   26156.76606093  .00002452  00000+0  20016-3 0  9990
2 43678  98.1158 352.4795 0011829 208.3130 151.7451 15.00395632414507
ES'HAIL 2               
1 43700U 18090A   26156.63957595  .00000157  00000+0  00000+0 0  9992
2 43700   0.0169   6.1871 0001956 102.4053  41.5169  1.00273110 27562
FOX-1CLIFF (AO-95)      
1 43770U 18099N   26156.08244416  .00010962  00000+0  42280-3 0  9993
2 43770  97.4389 216.3757 0009283  40.1659 320.0264 15.26442922411371
ITASAT                  
1 43786U 18099AE  26156.36171225  .00007415  00000+0  35770-3 0  9993
2 43786  97.4030 208.1104 0013338  40.5492 319.6733 15.18900130411119
JY1SAT (JO-97)          
1 43803U 18099AX  26156.08899900  .00015845  00000+0  49499-3 0  9998
2 43803  97.4134 218.8851 0004294 322.9431  37.1514 15.33253592411773
UWE-4                   
1 43880U 18111E   26156.04483588  .00034971  00000+0  73225-3 0  9990
2 43880  97.5859  83.8833 0007898  27.7618 332.4050 15.45332944408902
TIANYAN 01              
1 44881U 19093C   26156.66884522  .00000493  00000+0  61627-4 0  9999
2 44881  97.7530 229.1812 0014720 121.1593 239.1068 14.86498213349707
RS-44 & BREEZE-KM R/B   
1 44909U 19096E   26156.27794951  .00000008  00000+0 -15917-4 0  9990
2 44909  82.5219 347.6205 0217640 171.9532 188.5155 12.79748568300823
SALSAT                  
1 46495U 20068K   26155.97862976  .00008911  00000+0  31300-3 0  9995
2 46495  97.8851 158.3021 0009245 356.4519   3.6652 15.29615280313492
XW-3 (CAS-9)            
1 50466U 21131B   26156.73924167  .00000584  00000+0  19414-3 0  9996
2 50466  98.4977 249.1911 0005092 122.6525 237.5156 14.41347137233465
GREENCUBE (IO-117)      
1 53109U 22080E   26152.46502029 -.00000003  00000+0  00000+0 0  9996
2 53109  70.1435 303.7143 0008869 293.3663  66.6064  6.42583280 91055
UMKA 1 (RS40S)          
1 57172U 23091G   26156.71069500  .00007719  00000+0  35360-3 0  9998
2 57172  97.5051 215.4529 0013615 153.9596 206.2326 15.20682241162262
CUBESX-HSE 3 (RS42S)    
1 57178U 23091N   26156.60585060  .00014723  00000+0  49411-3 0  9991
2 57178  97.5091 222.0491 0012038 130.4685 229.7608 15.30909781162659
MONITOR-3 (RS58S)       
1 57180U 23091Q   26156.53950691  .00011568  00000+0  43026-3 0  9992
2 57180  97.5082 219.9019 0012904 136.9838 223.2412 15.27595956162514
MONITOR-4 (RS57S)       
1 57182U 23091S   26156.65025021  .00011516  00000+0  42704-3 0  9992
2 57182  97.5077 219.9840 0012889 136.9568 223.2681 15.27696670162539
MONITOR-2 (RS39S)       
1 57184U 23091U   26156.71764664  .00006103  00000+0  29609-3 0  9999
2 57184  97.5073 215.0752 0012189 146.5913 213.6092 15.18799840162217
SVYATOBOR 1 (RS60S)     
1 57187U 23091X   26156.71909206  .00010970  00000+0  42331-3 0  9999
2 57187  97.5089 220.4741 0010794 128.9922 231.2279 15.26414198162569
VIZARD-METEO (RS38S)    
1 57189U 23091Z   26156.61555215  .00017918  00000+0  51824-3 0  9993
2 57189  97.5090 225.8719 0008751 111.8357 248.3818 15.35641651162913
POLYTECH-UNIVERSE 3 (R*)
1 57191U 23091AB  26156.61460882  .00005473  00000+0  26401-3 0  9997
2 57191  97.5048 214.4776 0016067 164.2404 195.9334 15.18998833162198
UTMN 2 (RS27S)          
1 57203U 23091AP  26156.62979624  .00013641  00000+0  44656-3 0  9999
2 57203  97.5087 223.6931 0009476 118.1220 242.0980 15.31755831162779
